{
    "links": {
        "self": "http://www.neowsapp.com/rest/v1/neo/3836120?api_key=iIulBulltgU6a56xZRHN4H3l9WmuAYTsLGpBGhQ2"
    },
    "id": "3836120",
    "neo_reference_id": "3836120",
    "name": "(2018 VG5)",
    "designation": "2018 VG5",
    "nasa_jpl_url": "http://ssd.jpl.nasa.gov/sbdb.cgi?sstr=3836120",
    "absolute_magnitude_h": 25.7,
    "estimated_diameter": {
        "kilometers": {
            "estimated_diameter_min": 0.0192555078,
            "estimated_diameter_max": 0.0430566244
        },
        "meters": {
            "estimated_diameter_min": 19.2555078188,
            "estimated_diameter_max": 43.0566244241
        },
        "miles": {
            "estimated_diameter_min": 0.0119648141,
            "estimated_diameter_max": 0.0267541378
        },
        "feet": {
            "estimated_diameter_min": 63.1742402722,
            "estimated_diameter_max": 141.2618956756
        }
    },
    "is_potentially_hazardous_asteroid": false,
    "close_approach_data": [
        {
            "close_approach_date": "2018-11-11",
            "close_approach_date_full": "2018-Nov-11 00:14",
            "epoch_date_close_approach": 1541895240000,
            "relative_velocity": {
                "kilometers_per_second": "5.0773001577",
                "kilometers_per_hour": "18278.2805676043",
                "miles_per_hour": "11357.4127226873"
            },
            "miss_distance": {
                "astronomical": "0.065935721",
                "lunar": "25.648995469",
                "kilometers": "9863843.41851427",
                "miles": "6129108.089746126"
            },
            "orbiting_body": "Earth"
        }
    ],
    "orbital_data": {
        "orbit_id": "5",
        "orbit_determination_date": "2019-01-19 07:28:51",
        "first_observation_date": "2018-11-05",
        "last_observation_date": "2018-12-10",
        "data_arc_in_days": 35,
        "observations_used": 48,
        "orbit_uncertainty": "7",
        "minimum_orbit_intersection": ".0663549",
        "jupiter_tisserand_invariant": "4.193",
        "epoch_osculation": "2459000.5",
        "eccentricity": ".3616029025249379",
        "semi_major_axis": "1.653066116638542",
        "inclination": "6.109575043639893",
        "ascending_node_longitude": "232.8714780631791",
        "orbital_period": "776.3074662076245",
        "perihelion_distance": "1.055312610796417",
        "perihelion_argument": "178.1789765219985",
        "aphelion_distance": "2.250819622480666",
        "perihelion_time": "2459211.587814101230",
        "mean_anomaly": "262.1114488983687",
        "mean_motion": ".4637337854789065",
        "equinox": "J2000",
        "orbit_class": {
            "orbit_class_type": "AMO",
            "orbit_class_description": "Near-Earth asteroid orbits similar to that of 1221 Amor",
            "orbit_class_range": "1.017 AU < q (perihelion) < 1.3 AU"
        }
    },
    "is_sentry_object": false
}